[{"CCSDS_OMM_VERS":"2.0","COMMENT":"GENERATED VIA SPACE-TRACK.ORG API","CREATION_DATE":"2021-11-04T17:50:53","ORIGINATOR":"18 SPCS","OBJECT_NAME":"TBA - TO BE ASSIGNED","OBJECT_ID":"","CENTER_NAME":"EARTH","REF_FRAME":"TEME","TIME_SYSTEM":"UTC","MEAN_ELEMENT_THEORY":"SGP4","EPOCH":"2021-11-04T09:33:55.566720","MEAN_MOTION":"14.77720506","ECCENTRICITY":"0.00058230","INCLINATION":"98.2876","RA_OF_ASC_NODE":"354.8107","ARG_OF_PERICENTER":"68.8897","MEAN_ANOMALY":"291.2935","EPHEMERIS_TYPE":"0","CLASSIFICATION_TYPE":"U","NORAD_CAT_ID":"82383","ELEMENT_SET_NO":"999","REV_AT_EPOCH":"32472","BSTAR":"0.00336960000000","MEAN_MOTION_DOT":"0.00024185","MEAN_MOTION_DDOT":"0.0000000000000","SEMIMAJOR_AXIS":"7014.666","PERIOD":"97.447","APOAPSIS":"640.615","PERIAPSIS":"632.446","OBJECT_TYPE":"TBA","RCS_SIZE":null,"COUNTRY_CODE":null,"LAUNCH_DATE":null,"SITE":null,"DECAY_DATE":null,"FILE":"3200777","GP_ID":"188874262","TLE_LINE0":"0 TBA - TO BE ASSIGNED","TLE_LINE1":"1 82383U          21308.39855980 +.00024185 +00000+0 +33696-2 0  9993","TLE_LINE2":"2 82383  98.2876 354.8107 0005823  68.8897 291.2935 14.77720506324726"},{"CCSDS_OMM_VERS":"2.0","COMMENT":"GENERATED VIA SPACE-TRACK.ORG API","CREATION_DATE":"2021-11-04T17:50:53","ORIGINATOR":"18 SPCS","OBJECT_NAME":"TBA - TO BE ASSIGNED","OBJECT_ID":"","CENTER_NAME":"EARTH","REF_FRAME":"TEME","TIME_SYSTEM":"UTC","MEAN_ELEMENT_THEORY":"SGP4","EPOCH":"2021-11-04T14:34:25.040928","MEAN_MOTION":"14.85474929","ECCENTRICITY":"0.00127170","INCLINATION":"86.6692","RA_OF_ASC_NODE":"71.1221","ARG_OF_PERICENTER":"134.1153","MEAN_ANOMALY":"226.1121","EPHEMERIS_TYPE":"0","CLASSIFICATION_TYPE":"U","NORAD_CAT_ID":"82402","ELEMENT_SET_NO":"999","REV_AT_EPOCH":"23094","BSTAR":"0.00039619000000","MEAN_MOTION_DOT":"0.00003448","MEAN_MOTION_DDOT":"0.0000000000000","SEMIMAJOR_AXIS":"6990.233","PERIOD":"96.939","APOAPSIS":"620.987","PERIAPSIS":"603.208","OBJECT_TYPE":"TBA","RCS_SIZE":null,"COUNTRY_CODE":null,"LAUNCH_DATE":null,"SITE":null,"DECAY_DATE":null,"FILE":"3200777","GP_ID":"188874118","TLE_LINE0":"0 TBA - TO BE ASSIGNED","TLE_LINE1":"1 82402U          21308.60723427 +.00003448 +00000+0 +39619-3 0  9990","TLE_LINE2":"2 82402  86.6692  71.1221 0012717 134.1153 226.1121 14.85474929230941"},{"CCSDS_OMM_VERS":"2.0","COMMENT":"GENERATED VIA SPACE-TRACK.ORG API","CREATION_DATE":"2019-10-02T17:30:56","ORIGINATOR":"18 SPCS","OBJECT_NAME":"TBA - TO BE ASSIGNED","OBJECT_ID":null,"CENTER_NAME":"EARTH","REF_FRAME":"TEME","TIME_SYSTEM":"UTC","MEAN_ELEMENT_THEORY":"SGP4","EPOCH":"2019-10-01T16:55:00.446592","MEAN_MOTION":"14.74999314","ECCENTRICITY":"0.00430820","INCLINATION":"98.1102","RA_OF_ASC_NODE":"1.1219","ARG_OF_PERICENTER":"111.0771","MEAN_ANOMALY":"249.5052","EPHEMERIS_TYPE":"0","CLASSIFICATION_TYPE":"U","NORAD_CAT_ID":"82405","ELEMENT_SET_NO":"999","REV_AT_EPOCH":"10448","BSTAR":"0.00004191000000","MEAN_MOTION_DOT":"0.00000232","MEAN_MOTION_DDOT":"0.0000000000000","SEMIMAJOR_AXIS":"7023.290","PERIOD":"97.627","APOAPSIS":"675.413","PERIAPSIS":"614.897","OBJECT_TYPE":"TBA","RCS_SIZE":null,"COUNTRY_CODE":null,"LAUNCH_DATE":null,"SITE":null,"DECAY_DATE":null,"FILE":"2622266","GP_ID":"140503844","TLE_LINE0":"0 TBA - TO BE ASSIGNED","TLE_LINE1":"1 82405U          19274.70486628 +.00000232 +00000+0 +41910-4 0  9998","TLE_LINE2":"2 82405  98.1102   1.1219 0043082 111.0771 249.5052 14.74999314104486"},{"CCSDS_OMM_VERS":"2.0","COMMENT":"GENERATED VIA SPACE-TRACK.ORG API","CREATION_DATE":"2021-11-02T18:24:01","ORIGINATOR":"18 SPCS","OBJECT_NAME":"TBA - TO BE ASSIGNED","OBJECT_ID":"","CENTER_NAME":"EARTH","REF_FRAME":"TEME","TIME_SYSTEM":"UTC","MEAN_ELEMENT_THEORY":"SGP4","EPOCH":"2021-11-02T08:15:42.435360","MEAN_MOTION":"13.76083104","ECCENTRICITY":"0.00682930","INCLINATION":"66.6570","RA_OF_ASC_NODE":"338.6391","ARG_OF_PERICENTER":"299.4441","MEAN_ANOMALY":"59.9825","EPHEMERIS_TYPE":"0","CLASSIFICATION_TYPE":"U","NORAD_CAT_ID":"82410","ELEMENT_SET_NO":"999","REV_AT_EPOCH":"38008","BSTAR":"0.00009746800000","MEAN_MOTION_DOT":"0.00000021","MEAN_MOTION_DDOT":"0.0000000000000","SEMIMAJOR_AXIS":"7355.949","PERIOD":"104.645","APOAPSIS":"1028.050","PERIAPSIS":"927.578","OBJECT_TYPE":"TBA","RCS_SIZE":null,"COUNTRY_CODE":null,"LAUNCH_DATE":null,"SITE":null,"DECAY_DATE":null,"FILE":"3197730","GP_ID":"188716636","TLE_LINE0":"0 TBA - TO BE ASSIGNED","TLE_LINE1":"1 82410U          21306.34424115 +.00000021 +00000+0 +97468-4 0  9991","TLE_LINE2":"2 82410  66.6570 338.6391 0068293 299.4441  59.9825 13.76083104380081"},{"CCSDS_OMM_VERS":"2.0","COMMENT":"GENERATED VIA SPACE-TRACK.ORG API","CREATION_DATE":"2019-10-01T16:25:27","ORIGINATOR":"18 SPCS","OBJECT_NAME":"TBA - TO BE ASSIGNED","OBJECT_ID":null,"CENTER_NAME":"EARTH","REF_FRAME":"TEME","TIME_SYSTEM":"UTC","MEAN_ELEMENT_THEORY":"SGP4","EPOCH":"2019-10-01T06:04:14.615616","MEAN_MOTION":"14.71133808","ECCENTRICITY":"0.00102030","INCLINATION":"98.4003","RA_OF_ASC_NODE":"17.4776","ARG_OF_PERICENTER":"217.4613","MEAN_ANOMALY":"142.5882","EPHEMERIS_TYPE":"0","CLASSIFICATION_TYPE":"U","NORAD_CAT_ID":"82427","ELEMENT_SET_NO":"999","REV_AT_EPOCH":"9996","BSTAR":"0.00288830000000","MEAN_MOTION_DOT":"0.00017777","MEAN_MOTION_DDOT":"0.0000000000000","SEMIMAJOR_AXIS":"7035.587","PERIOD":"97.883","APOAPSIS":"664.631","PERIAPSIS":"650.274","OBJECT_TYPE":"TBA","RCS_SIZE":null,"COUNTRY_CODE":null,"LAUNCH_DATE":null,"SITE":null,"DECAY_DATE":null,"FILE":"2621581","GP_ID":"140413998","TLE_LINE0":"0 TBA - TO BE ASSIGNED","TLE_LINE1":"1 82427U          19274.25294694 +.00017777 +00000+0 +28883-2 0  9996","TLE_LINE2":"2 82427  98.4003  17.4776 0010203 217.4613 142.5882 14.71133808 99960"},{"CCSDS_OMM_VERS":"2.0","COMMENT":"GENERATED VIA SPACE-TRACK.ORG API","CREATION_DATE":"2021-11-04T17:50:53","ORIGINATOR":"18 SPCS","OBJECT_NAME":"TBA - TO BE ASSIGNED","OBJECT_ID":"","CENTER_NAME":"EARTH","REF_FRAME":"TEME","TIME_SYSTEM":"UTC","MEAN_ELEMENT_THEORY":"SGP4","EPOCH":"2021-11-04T04:19:27.267744","MEAN_MOTION":"13.80365273","ECCENTRICITY":"0.00553940","INCLINATION":"63.1664","RA_OF_ASC_NODE":"12.4419","ARG_OF_PERICENTER":"57.6789","MEAN_ANOMALY":"302.9600","EPHEMERIS_TYPE":"0","CLASSIFICATION_TYPE":"U","NORAD_CAT_ID":"82428","ELEMENT_SET_NO":"999","REV_AT_EPOCH":"21223","BSTAR":"0.02043000000000","MEAN_MOTION_DOT":"0.00021588","MEAN_MOTION_DDOT":"0.0000000000000","SEMIMAJOR_AXIS":"7340.728","PERIOD":"104.320","APOAPSIS":"1003.257","PERIAPSIS":"921.930","OBJECT_TYPE":"TBA","RCS_SIZE":null,"COUNTRY_CODE":null,"LAUNCH_DATE":null,"SITE":null,"DECAY_DATE":null,"FILE":"3200777","GP_ID":"188874269","TLE_LINE0":"0 TBA - TO BE ASSIGNED","TLE_LINE1":"1 82428U          21308.18017671 +.00021588 +00000+0 +20430-1 0  9992","TLE_LINE2":"2 82428  63.1664  12.4419 0055394  57.6789 302.9600 13.80365273212239"},{"CCSDS_OMM_VERS":"2.0","COMMENT":"GENERATED VIA SPACE-TRACK.ORG API","CREATION_DATE":"2021-11-01T19:35:20","ORIGINATOR":"18 SPCS","OBJECT_NAME":"TBA - TO BE ASSIGNED","OBJECT_ID":"1993-036","CENTER_NAME":"EARTH","REF_FRAME":"TEME","TIME_SYSTEM":"UTC","MEAN_ELEMENT_THEORY":"SGP4","EPOCH":"2021-11-01T06:37:11.362944","MEAN_MOTION":"14.50538230","ECCENTRICITY":"0.00619550","INCLINATION":"74.0083","RA_OF_ASC_NODE":"303.6419","ARG_OF_PERICENTER":"113.7931","MEAN_ANOMALY":"246.9743","EPHEMERIS_TYPE":"0","CLASSIFICATION_TYPE":"U","NORAD_CAT_ID":"82432","ELEMENT_SET_NO":"999","REV_AT_EPOCH":"26458","BSTAR":"0.00012733000000","MEAN_MOTION_DOT":"0.00000482","MEAN_MOTION_DDOT":"0.0000000000000","SEMIMAJOR_AXIS":"7102.028","PERIOD":"99.273","APOAPSIS":"767.894","PERIAPSIS":"679.893","OBJECT_TYPE":"TBA","RCS_SIZE":null,"COUNTRY_CODE":null,"LAUNCH_DATE":null,"SITE":null,"DECAY_DATE":null,"FILE":"3196300","GP_ID":"188638522","TLE_LINE0":"0 TBA - TO BE ASSIGNED","TLE_LINE1":"1 82432U 93036    21305.27582596 +.00000482 +00000+0 +12733-3 0  9997","TLE_LINE2":"2 82432  74.0083 303.6419 0061955 113.7931 246.9743 14.50538230264581"},{"CCSDS_OMM_VERS":"2.0","COMMENT":"GENERATED VIA SPACE-TRACK.ORG API","CREATION_DATE":"2021-11-04T17:50:53","ORIGINATOR":"18 SPCS","OBJECT_NAME":"TBA - TO BE ASSIGNED","OBJECT_ID":"","CENTER_NAME":"EARTH","REF_FRAME":"TEME","TIME_SYSTEM":"UTC","MEAN_ELEMENT_THEORY":"SGP4","EPOCH":"2021-11-04T07:38:53.227968","MEAN_MOTION":"14.85416766","ECCENTRICITY":"0.00105390","INCLINATION":"85.8766","RA_OF_ASC_NODE":"265.6129","ARG_OF_PERICENTER":"182.3673","MEAN_ANOMALY":"177.7502","EPHEMERIS_TYPE":"0","CLASSIFICATION_TYPE":"U","NORAD_CAT_ID":"82448","ELEMENT_SET_NO":"999","REV_AT_EPOCH":"21346","BSTAR":"0.00022238000000","MEAN_MOTION_DOT":"0.00001944","MEAN_MOTION_DDOT":"0.0000000000000","SEMIMAJOR_AXIS":"6990.415","PERIOD":"96.942","APOAPSIS":"619.647","PERIAPSIS":"604.913","OBJECT_TYPE":"TBA","RCS_SIZE":null,"COUNTRY_CODE":null,"LAUNCH_DATE":null,"SITE":null,"DECAY_DATE":null,"FILE":"3200777","GP_ID":"188874075","TLE_LINE0":"0 TBA - TO BE ASSIGNED","TLE_LINE1":"1 82448U          21308.31867162 +.00001944 +00000+0 +22238-3 0  9991","TLE_LINE2":"2 82448  85.8766 265.6129 0010539 182.3673 177.7502 14.85416766213460"}]